{
    "links": {
        "self": "http://www.neowsapp.com/rest/v1/neo/3579459?api_key=iIulBulltgU6a56xZRHN4H3l9WmuAYTsLGpBGhQ2"
    },
    "id": "3579459",
    "neo_reference_id": "3579459",
    "name": "(2011 SW71)",
    "designation": "2011 SW71",
    "nasa_jpl_url": "http://ssd.jpl.nasa.gov/sbdb.cgi?sstr=3579459",
    "absolute_magnitude_h": 22.6,
    "estimated_diameter": {
        "kilometers": {
            "estimated_diameter_min": 0.0802703167,
            "estimated_diameter_max": 0.1794898848
        },
        "meters": {
            "estimated_diameter_min": 80.2703167283,
            "estimated_diameter_max": 179.4898847799
        },
        "miles": {
            "estimated_diameter_min": 0.049877647,
            "estimated_diameter_max": 0.1115298092
        },
        "feet": {
            "estimated_diameter_min": 263.3540659348,
            "estimated_diameter_max": 588.8775935812
        }
    },
    "is_potentially_hazardous_asteroid": false,
    "close_approach_data": [
        {
            "close_approach_date": "1966-07-04",
            "close_approach_date_full": "1966-Jul-04 22:33",
            "epoch_date_close_approach": -110251620000,
            "relative_velocity": {
                "kilometers_per_second": "16.8162695493",
                "kilometers_per_hour": "60538.5703776179",
                "miles_per_hour": "37616.3133549148"
            },
            "miss_distance": {
                "astronomical": "0.3783011661",
                "lunar": "147.1591536129",
                "kilometers": "56593048.667076207",
                "miles": "35165289.8055653766"
            },
            "orbiting_body": "Earth"
        },
        {
            "close_approach_date": "2004-10-11",
            "close_approach_date_full": "2004-Oct-11 03:35",
            "epoch_date_close_approach": 1097465700000,
            "relative_velocity": {
                "kilometers_per_second": "18.5264076009",
                "kilometers_per_hour": "66695.0673632454",
                "miles_per_hour": "41441.7211624566"
            },
            "miss_distance": {
                "astronomical": "0.3936375626",
                "lunar": "153.1250118514",
                "kilometers": "58887340.916951662",
                "miles": "36590896.9033584556"
            },
            "orbiting_body": "Earth"
        },
        {
            "close_approach_date": "2011-08-25",
            "close_approach_date_full": "2011-Aug-25 05:01",
            "epoch_date_close_approach": 1314248460000,
            "relative_velocity": {
                "kilometers_per_second": "7.0625035575",
                "kilometers_per_hour": "25425.0128069708",
                "miles_per_hour": "15798.1142077536"
            },
            "miss_distance": {
                "astronomical": "0.1216275674",
                "lunar": "47.3131237186",
                "kilometers": "18195225.016321438",
                "miles": "11305988.5594863244"
            },
            "orbiting_body": "Earth"
        },
        {
            "close_approach_date": "2049-10-14",
            "close_approach_date_full": "2049-Oct-14 12:54",
            "epoch_date_close_approach": 2517828840000,
            "relative_velocity": {
                "kilometers_per_second": "20.0447851995",
                "kilometers_per_hour": "72161.2267180564",
                "miles_per_hour": "44838.1800126723"
            },
            "miss_distance": {
                "astronomical": "0.4471355022",
                "lunar": "173.9357103558",
                "kilometers": "66890518.730500314",
                "miles": "41563840.9982157732"
            },
            "orbiting_body": "Earth"
        }
    ],
    "orbital_data": {
        "orbit_id": "14",
        "orbit_determination_date": "2017-04-06 08:52:40",
        "first_observation_date": "2011-09-24",
        "last_observation_date": "2011-11-24",
        "data_arc_in_days": 61,
        "observations_used": 36,
        "orbit_uncertainty": "6",
        "minimum_orbit_intersection": ".103829",
        "jupiter_tisserand_invariant": "3.381",
        "epoch_osculation": "2459000.5",
        "eccentricity": ".5383319866886064",
        "semi_major_axis": "2.289271717541812",
        "inclination": "7.449151179928948",
        "ascending_node_longitude": "23.93550751845354",
        "orbital_period": "1265.157053736039",
        "perihelion_distance": "1.05688352576749",
        "perihelion_argument": "307.0287420588585",
        "aphelion_distance": "3.521659909316133",
        "perihelion_time": "2459589.583019051929",
        "mean_anomaly": "192.3766316344309",
        "mean_motion": ".2845496525011748",
        "equinox": "J2000",
        "orbit_class": {
            "orbit_class_type": "AMO",
            "orbit_class_description": "Near-Earth asteroid orbits similar to that of 1221 Amor",
            "orbit_class_range": "1.017 AU < q (perihelion) < 1.3 AU"
        }
    },
    "is_sentry_object": false
}